# From MPC106342
C/1995 O1 (Hale-Bopp),e,89.0645,283.2025,130.4944,178.3913,0.0004137,0.99495493,0.0000,03/29.7445/1997,2000,g -2.0,4.0
# From NK 1615
P/1996 R2 (Lagerkvist),e,2.6004,40.0219,333.3242,3.775005,0.1343779,0.31420851,115.3180,06/19.0/2021,2000,g 11.5,4.0
# From MPC 30063
P/1997 B1 (Kobayashi),e,12.3395,328.8819,183.3378,8.574740,0.0392530,0.76023387,348.9010,06/19.0/2021,2000,g 15.0,2.0
# From MPC 75703
P/1998 VS24 (LINEAR),e,5.0260,159.0349,244.6274,4.528338,0.1022812,0.24227785,127.6298,06/19.0/2021,2000,g 13.0,2.0
# From NK 731
P/1999 RO28 (LONEOS),e,7.5672,137.8854,231.2644,3.426717,0.1553770,0.67222308,112.4543,06/19.0/2021,2000,g 20.0,2.0
# From MPC 75704
P/1999 XN120 (Catalina),e,5.0296,285.2964,161.8339,4.179047,0.1153688,0.21022595,169.6200,06/19.0/2021,2000,g 13.5,2.0
# From NK 744
P/2000 R2 (LINEAR),e,11.6860,160.2881,176.5392,3.466646,0.1527003,0.53160532,111.8502,06/19.0/2021,2000,g 18.0,4.0
# From MPC 43019
P/2001 H5 (NEAT),e,8.3669,328.6833,224.8480,6.097745,0.0654561,0.59843282,135.5444,06/19.0/2021,2000,g 12.0,4.0
# From MPC 75704
P/2001 Q6 (NEAT),e,56.9081,22.1548,42.9321,7.953365,0.0439418,0.82296430,316.7256,06/19.0/2021,2000,g 13.5,4.0
# From MPC 47727
P/2002 EJ57 (LINEAR),e,4.9762,330.3256,167.3594,6.470650,0.0598801,0.59243779,65.6871,06/19.0/2021,2000,g 12.5,4.0
# From MPC109588
P/2002 T6 (NEAT-LINEAR),e,10.8367,206.2813,219.6618,7.683533,0.0462767,0.56065645,307.7370,06/19.0/2021,2000,g 10.5,4.0
# From MPC 75007
C/2002 VQ94 (LINEAR),e,70.6071,35.0527,100.1252,185.1338,0.0003913,0.96310790,2.1996,06/19.0/2021,2000,g  9.5,2.0
# From MPC 50354
P/2003 F2 (NEAT),e,11.6057,359.0355,192.0857,6.498739,0.0594923,0.54231068,34.7638,06/19.0/2021,2000,g 16.5,2.0
# From MPC 50139
P/2003 QX29 (NEAT),e,11.3901,264.5691,37.4880,8.027758,0.0433324,0.47298975,294.6405,06/19.0/2021,2000,g  8.5,4.0
# From MPC105235
P/2003 T12 (SOHO),e,11.0192,174.5762,219.7573,2.585981,0.2370096,0.76975010,96.7248,06/19.0/2021,2000,g 17.0,4.0
# From MPC 82312
P/2004 A1 (LONEOS),e,10.5516,124.8477,21.3073,7.960593,0.0438820,0.30933279,270.3698,06/19.0/2021,2000,g  6.5,4.0
# From MPC 54558
P/2004 DO29 (Spacewatch-LINEAR),e,14.5323,147.3733,40.6722,7.285522,0.0501202,0.44115928,305.7905,06/19.0/2021,2000,g 13.5,2.0
# From MPC 54823
P/2004 FY140 (LINEAR),e,2.1348,326.7620,242.3977,4.903217,0.0907784,0.16827292,195.8865,06/19.0/2021,2000,g 12.5,2.0
# From MPC 53304
P/2004 R3 (LINEAR-NEAT),e,12.8063,305.4650,38.0495,4.792989,0.0939279,0.25996833,350.9140,06/19.0/2021,2000,g 14.5,4.0
# From MPC 55521
P/2004 V3 (Siding Spring),e,50.4400,356.1232,322.3515,7.140695,0.0516527,0.44633099,314.2259,06/19.0/2021,2000,g 11.5,4.0
# From MPC 75705
P/2004 V5 (LINEAR-Hill),e,19.3421,47.7831,87.7070,7.979537,0.0437258,0.44361852,261.5547,06/19.0/2021,2000,g  8.0,4.0
# From MPC 54164
P/2005 E1 (Tubbiolo),e,4.2637,335.5680,194.0578,7.040516,0.0527591,0.37514380,316.0738,06/19.0/2021,2000,g 10.0,4.0
# From MPC 54823
P/2005 GF8 (LONEOS),e,1.1907,314.7796,284.7547,5.834618,0.0699335,0.51748235,44.0408,06/19.0/2021,2000,g 11.5,4.0
# From MPC 79019
P/2005 J1 (McNaught),e,31.7611,268.8117,338.9617,3.570427,0.1460912,0.56962188,143.2422,06/19.0/2021,2000,g 16.5,4.0
# From MPC 74246
P/2005 L1 (McNaught),e,7.7386,138.2478,149.7245,3.975762,0.1243293,0.20954502,343.0007,06/19.0/2021,2000,g  9.5,4.0
# From MPC 75706
P/2005 S2 (Skiff),e,3.1357,161.2090,229.1648,8.014781,0.0434377,0.19741785,239.7543,06/19.0/2021,2000,g  7.5,4.0
# From MPC 75706
P/2005 SB216 (LONEOS),e,24.0860,1.1903,83.3602,7.131784,0.0517496,0.46370324,273.3504,06/19.0/2021,2000,g 12.0,2.0
# From MPC 55717
P/2005 T2 (Christensen),e,8.2921,260.1598,58.8368,3.846620,0.1306427,0.41637340,57.0364,06/19.0/2021,2000,g 14.5,4.0
# From MPC 73461
P/2005 T3 (Read),e,6.2238,27.7158,6.8219,7.582431,0.0472054,0.17441304,270.9273,06/19.0/2021,2000,g  9.0,4.0
# From MPC 73461
P/2005 T4 (SWAN),e,160.2121,25.7550,41.6598,9.361249,0.0344115,0.92977153,197.5471,06/19.0/2021,2000,g 15.0,4.0
# From MPC 75706
P/2005 T5 (Broughton),e,21.3608,57.0021,304.5668,7.289379,0.0500805,0.55231214,287.0683,06/19.0/2021,2000,g 11.0,4.0
# From MPC 56954
P/2005 W3 (Kowalski),e,16.4204,210.0853,200.7267,6.328681,0.0619062,0.54334669,354.1877,06/19.0/2021,2000,g 12.0,4.0
# From MPC 75706
P/2005 Y2 (McNaught),e,19.0596,94.4178,193.9065,6.381443,0.0611400,0.47049549,14.8162,06/19.0/2021,2000,g  9.0,4.0
# From MPC 56954
P/2006 F4 (Spacewatch),e,12.4233,183.8303,30.9665,3.521983,0.1491156,0.34010748,102.3763,06/19.0/2021,2000,g 15.0,4.0
# From MPC 75707
P/2006 HR30 (Siding Spring),e,31.8310,309.8997,117.2922,7.811151,0.0451473,0.84230916,239.3851,06/19.0/2021,2000,g 11.0,4.0
# From MPEC 2021-M34
P/2006 S4 (Christensen),e,39.5318,36.0781,305.1404,6.316129,0.0620908,0.50837207,347.0300,06/19.0/2021,2000,g 11.0,4.0
# From MPC 75707
P/2007 A2 (Christensen),e,26.4877,300.9077,186.7325,6.328207,0.0619132,0.55776860,327.2955,06/19.0/2021,2000,g 13.5,4.0
# From MPC 75707
P/2007 C2 (Catalina),e,8.6362,275.5141,180.0369,6.992228,0.0533066,0.47088215,267.1857,06/19.0/2021,2000,g 10.0,4.0
# From MPC 84315
C/2007 D1 (LINEAR),e,41.5017,171.2087,340.0154,1408,0.0000186,0.99373649,0.0000,06/08.4294/2007,2000,g  3.5,4.0
# From MPC 82314
P/2007 K2 (Gibbs),e,7.6322,188.6423,347.4379,7.265771,0.0503247,0.68309286,258.2709,06/19.0/2021,2000,g 14.0,4.0
# From MPC 60925
P/2007 Q2 (Gilmore),e,10.2027,172.1599,162.7784,5.652529,0.0733398,0.67010678,14.9635,06/19.0/2021,2000,g 16.0,4.0
# From MPC 75708
P/2007 R4 (Garradd),e,20.2132,87.2118,282.5906,5.935390,0.0681601,0.67022366,348.2269,06/19.0/2021,2000,g 14.5,4.0
# From MPC 73462
P/2007 S1 (Zhao),e,5.9639,141.3711,245.5973,3.816423,0.1321963,0.33958075,297.0548,06/19.0/2021,2000,g 13.0,4.0
# From MPC 61994
P/2007 T2 (Kowalski),e,9.7487,3.3747,359.6393,3.046882,0.1853193,0.78541169,196.6292,06/19.0/2021,2000,g 18.5,4.0
# From MPC 75708
P/2008 CL94 (Lemmon),e,8.3465,33.3200,80.4179,6.162911,0.0644207,0.12050603,353.9816,06/19.0/2021,2000,g  8.0,4.0
# From MPC 75709
P/2008 L2 (Hill),e,25.8624,218.0089,141.2255,6.028370,0.0665893,0.61320911,313.9796,06/19.0/2021,2000,g 12.5,4.0
# From MPC 64114
P/2008 O3 (Boattini),e,32.2738,47.5859,341.1022,8.221067,0.0418130,0.69549949,199.5912,06/19.0/2021,2000,g 13.0,4.0
# From MPC 75709
P/2008 QP20 (LINEAR-Hill),e,7.5226,322.0725,75.5325,3.553609,0.1471295,0.49175609,330.9950,06/19.0/2021,2000,g 15.5,4.0
# From MPC 66204
P/2008 WZ96 (LINEAR),e,7.1116,56.4467,341.9305,3.487135,0.1513565,0.46984326,349.5893,06/19.0/2021,2000,g 13.5,4.0
# From MPC 75710
P/2008 Y3 (McNaught),e,38.7671,262.8039,238.2024,8.046909,0.0431778,0.44545944,196.9692,06/19.0/2021,2000,g  8.5,4.0
# From MPC 75710
P/2009 B1 (Boattini),e,22.2207,297.0893,128.8780,6.737009,0.0563642,0.63487253,256.3242,06/19.0/2021,2000,g 13.0,4.0
# From MPC 66466
C/2009 G1 (STEREO),e,108.7253,120.4449,175.4258,438.5111,0.0001073,0.99740729,0.0000,04/15.9793/2009,2000,g  9.0,4.0
# From MPC 75710
P/2009 O3 (Hill),e,16.2745,183.7016,154.4220,7.769166,0.0455137,0.68776830,200.7216,06/19.0/2021,2000,g 12.5,4.0
# From MPC 68902
P/2009 Q5 (McNaught),e,40.9842,160.2746,209.0300,7.435812,0.0486084,0.60908790,209.2458,06/19.0/2021,2000,g 10.0,4.0
# From MPC112389
P/2009 T2 (La Sagra),e,27.5651,215.8230,216.3827,7.723102,0.0459215,0.76539992,192.4933,06/19.0/2021,2000,g 14.0,4.0
# From MPC105235
P/2009 WX51 (Catalina),e,9.5946,31.6743,118.0962,3.081059,0.1822443,0.74026735,39.1171,06/19.0/2021,2000,g 19.0,2.0
# From MPC 74247
P/2009 Y2 (Kowalski),e,29.9345,262.0259,172.1462,6.549950,0.0587959,0.63605228,242.7488,06/19.0/2021,2000,g 13.0,4.0
# From MPC 75711
P/2010 A3 (Hill),e,14.8386,63.8844,42.1092,6.078232,0.0657716,0.73347862,270.3637,06/19.0/2021,2000,g 14.0,4.0
# From MPC 75008
P/2010 C1 (Scotti),e,9.1281,141.8862,3.6690,7.103528,0.0520587,0.25883406,220.5629,06/19.0/2021,2000,g  9.5,4.0
# From MPC 75008
P/2010 D2 (WISE),e,57.0858,319.8909,120.0378,6.717107,0.0566149,0.45100077,234.6252,06/19.0/2021,2000,g 16.0,4.0
# From MPC 75009
P/2010 E2 (Jarnac),e,15.3957,177.8234,8.3599,8.639112,0.0388151,0.71987553,159.0298,06/19.0/2021,2000,g 14.0,4.0
# From MPC 72851
P/2010 H2 (Vales),e,14.2742,64.1973,128.1152,3.833542,0.1313118,0.19587753,181.1298,06/19.0/2021,2000,g  6.0,4.0
# From MPC 70361
P/2010 H3 (SOHO),e,23.0804,77.0971,26.1451,3.037759,0.1861547,0.98537699,0.0000,02/07.9629/2021,2000,g 20.0,2.0
# From MPC 73463
P/2010 H4 (Scotti),e,2.3184,44.7398,179.5277,6.592156,0.0582321,0.26709358,234.0525,06/19.0/2021,2000,g 10.5,4.0
# From MPC 74637
P/2010 H5 (Scotti),e,14.0630,24.8047,175.1737,7.162323,0.0514190,0.15317476,210.4912,06/19.0/2021,2000,g 13.0,2.0
# From MPC 98558
P/2010 J3 (McMillan),e,13.2854,106.4196,157.5977,8.973151,0.0366679,0.72685437,144.7079,06/19.0/2021,2000,g 11.0,4.0
# From MPC 84315
P/2010 JC81 (WISE),e,38.7536,30.8494,12.4299,8.109458,0.0426792,0.77704930,158.4632,06/19.0/2021,2000,g  9.0,4.0
# From MPC 74248
P/2010 T2 (PANSTARRS),e,7.8971,58.8728,353.3608,5.530154,0.0757876,0.32155669,283.6322,06/19.0/2021,2000,g 11.5,4.0
# From MPC 98558
P/2010 TO20 (LINEAR-Grauer),e,2.4789,43.2931,266.8384,5.830807,0.0700021,0.05503503,323.6522,06/19.0/2021,2000,g  9.0,4.0
# From MPC 82316
P/2010 U1 (Boattini),e,8.2152,280.7075,85.9698,6.509428,0.0593458,0.24844669,247.0144,06/19.0/2021,2000,g  9.5,4.0
# From MPC119994
C/2010 U3 (Boattini),e,55.5291,43.0204,88.0614,2272,0.0000091,0.99628294,0.0000,02/25.5864/2019,2000,g  1.0,4.0
# From MPC 79021
P/2010 UH55 (Spacewatch),e,8.0415,232.9467,225.1742,6.652786,0.0574379,0.56336766,213.8236,06/19.0/2021,2000,g 11.0,4.0
# From MPC 75009
P/2010 WK (LINEAR),e,11.4011,11.3236,40.9713,5.761413,0.0712706,0.68997668,279.5335,06/19.0/2021,2000,g 14.5,2.0
# From MPC 82317
P/2011 A2 (Scotti),e,4.4749,54.6764,94.5136,3.106018,0.1800521,0.49949376,330.1759,06/19.0/2021,2000,g 16.5,4.0
# From MPC 84021
P/2011 C2 (Gibbs),e,10.8850,12.1242,160.8939,7.413773,0.0488253,0.26889563,168.8928,06/19.0/2021,2000,g  9.0,4.0
# From MPC 79866
